BRO-1                   
1 44495U 19054A   26196.17085571  .01393181  10026-4  76518-3 0  9992
2 44495  44.9803 118.9928 0010475 204.9910 155.0501 16.18539543384227
BRO-5                   
1 51061U 22002CF  26196.17368041  .00020095  00000+0  37401-3 0  9996
2 51061  97.2989 270.1186 0005364 203.6067 156.4939 15.48881766250587
BRO-6                   
1 52422U 22047AE  26196.19262793  .00027014  00000+0  44069-3 0  9992
2 52422  97.3394 287.8249 0002847 310.7692  49.3314 15.52568817235496
BRO-8                   
1 55011U 23001C   26196.13251624  .00021230  00000+0  36999-3 0  9992
2 55011  97.3188 261.7506 0004881  40.0127 320.1484 15.50748464196532
BRO-11                  
1 58264U 23174J   26196.15418853  .00002878  00000+0  10925-3 0  9995
2 58264  97.3900 272.7442 0011989 107.7976 252.4572 15.27590971149027
BRO-13                  
1 59107U 24043K   26196.17293892  .00000893  00000+0  83530-4 0  9992
2 59107  97.8526 327.2856 0007442 262.2885  97.7492 14.96650842128806
BRO-12                  
1 59108U 24043L   26196.16448687  .00000561  00000+0  54130-4 0  9992
2 59108  97.8508 327.4463 0007045 256.1517 103.8921 14.96893061128826
BRO-14                  
1 60551U 24149CM  26196.14995946  .00000914  00000+0  86103-4 0  9993
2 60551  97.6864 271.4249 0006735  18.0591 342.0868 14.96235870104172
BRO-15                  
1 60553U 24149CP  26196.13264376  .00000245  00000+0  26747-4 0  9995
2 60553  97.6792 270.9837 0007792   4.6260 355.5032 14.96221586104181
BRO-16                  
1 62654U 25009AX  26196.18013256  .00001896  00000+0  80908-4 0  9991
2 62654  97.4059 276.3217 0002144 153.8827 206.2519 15.24128407 83068
BRO-18                  
1 64550U 25135Y   26196.19158065  .00002461  00000+0  11032-3 0  9997
2 64550  97.4657 311.0093 0002492 115.9145 244.2348 15.22173393 59131
BRO-17                  
1 66672U 25276G   26196.13020878  .00001848  00000+0  93780-4 0  9993
2 66672  97.4183 268.6994 0005113 259.4856 100.5802 15.18157700 34631
BRO-20                  
1 66674U 25276J   26196.17213720  .00001541  00000+0  78362-4 0  9998
2 66674  97.4162 268.7284 0004744 263.0525  97.0170 15.18325071 34643
BRO-19                  
1 68422U 26067G   26195.85030791  .00001741  00000+0  86470-4 0  9990
2 68422  97.4493 153.9148 0002576 108.3967 251.7548 15.18986318 16149
BRO-21                  
1 69007U 26100AD  26195.68071394  .00001324  00000+0  61668-4 0  9992
2 69007  97.4012  93.1243 0006799 331.1353  28.9506 15.21620582 10989
BRO-22                  
1 69504U 26132C   26196.10759804  .00000677  00000+0  59430-4 0  9990
2 69504  97.6829 259.4295 0016617 181.2612 178.8572 14.99804770  4961
