{"fetched_at":"2026-07-15T17:47:01.315Z","source":"https://celestrak.org/NORAD/elements/gp.php?NAME=BRO&FORMAT=JSON","constellation":"unseenlabs","records":[{"OBJECT_NAME":"BRO-1","OBJECT_ID":"2019-054A","EPOCH":"2026-07-15T04:06:01.933344","CLASSIFICATION_TYPE":"U","MEAN_MOTION":16.18539543,"ECCENTRICITY":0.0010475,"INCLINATION":44.9803,"RA_OF_ASC_NODE":118.9928,"ARG_OF_PERICENTER":204.991,"MEAN_ANOMALY":155.0501,"EPHEMERIS_TYPE":0,"NORAD_CAT_ID":44495,"ELEMENT_SET_NO":999,"REV_AT_EPOCH":38422,"BSTAR":0.00076518,"MEAN_MOTION_DOT":0.01393181,"MEAN_MOTION_DDOT":0.000010026},{"OBJECT_NAME":"BRO-5","OBJECT_ID":"2022-002CF","EPOCH":"2026-07-15T04:10:05.987424","CLASSIFICATION_TYPE":"U","MEAN_MOTION":15.48881766,"ECCENTRICITY":0.0005364,"INCLINATION":97.2989,"RA_OF_ASC_NODE":270.1186,"ARG_OF_PERICENTER":203.6067,"MEAN_ANOMALY":156.4939,"EPHEMERIS_TYPE":0,"NORAD_CAT_ID":51061,"ELEMENT_SET_NO":999,"REV_AT_EPOCH":25058,"BSTAR":0.00037401,"MEAN_MOTION_DOT":0.00020095,"MEAN_MOTION_DDOT":0},{"OBJECT_NAME":"BRO-6","OBJECT_ID":"2022-047AE","EPOCH":"2026-07-15T04:37:23.053152","CLASSIFICATION_TYPE":"U","MEAN_MOTION":15.52568817,"ECCENTRICITY":0.0002847,"INCLINATION":97.3394,"RA_OF_ASC_NODE":287.8249,"ARG_OF_PERICENTER":310.7692,"MEAN_ANOMALY":49.3314,"EPHEMERIS_TYPE":0,"NORAD_CAT_ID":52422,"ELEMENT_SET_NO":999,"REV_AT_EPOCH":23549,"BSTAR":0.00044069,"MEAN_MOTION_DOT":0.00027014,"MEAN_MOTION_DDOT":0},{"OBJECT_NAME":"BRO-8","OBJECT_ID":"2023-001C","EPOCH":"2026-07-15T03:10:49.403136","CLASSIFICATION_TYPE":"U","MEAN_MOTION":15.50748464,"ECCENTRICITY":0.0004881,"INCLINATION":97.3188,"RA_OF_ASC_NODE":261.7506,"ARG_OF_PERICENTER":40.0127,"MEAN_ANOMALY":320.1484,"EPHEMERIS_TYPE":0,"NORAD_CAT_ID":55011,"ELEMENT_SET_NO":999,"REV_AT_EPOCH":19653,"BSTAR":0.00036999,"MEAN_MOTION_DOT":0.0002123,"MEAN_MOTION_DDOT":0},{"OBJECT_NAME":"BRO-11","OBJECT_ID":"2023-174J","EPOCH":"2026-07-15T03:42:01.888992","CLASSIFICATION_TYPE":"U","MEAN_MOTION":15.27590971,"ECCENTRICITY":0.0011989,"INCLINATION":97.39,"RA_OF_ASC_NODE":272.7442,"ARG_OF_PERICENTER":107.7976,"MEAN_ANOMALY":252.4572,"EPHEMERIS_TYPE":0,"NORAD_CAT_ID":58264,"ELEMENT_SET_NO":999,"REV_AT_EPOCH":14902,"BSTAR":0.00010925,"MEAN_MOTION_DOT":0.00002878,"MEAN_MOTION_DDOT":0},{"OBJECT_NAME":"BRO-13","OBJECT_ID":"2024-043K","EPOCH":"2026-07-15T04:09:01.922688","CLASSIFICATION_TYPE":"U","MEAN_MOTION":14.96650842,"ECCENTRICITY":0.0007442,"INCLINATION":97.8526,"RA_OF_ASC_NODE":327.2856,"ARG_OF_PERICENTER":262.2885,"MEAN_ANOMALY":97.7492,"EPHEMERIS_TYPE":0,"NORAD_CAT_ID":59107,"ELEMENT_SET_NO":999,"REV_AT_EPOCH":12880,"BSTAR":0.00008353,"MEAN_MOTION_DOT":0.00000893,"MEAN_MOTION_DDOT":0},{"OBJECT_NAME":"BRO-12","OBJECT_ID":"2024-043L","EPOCH":"2026-07-15T03:56:51.665568","CLASSIFICATION_TYPE":"U","MEAN_MOTION":14.96893061,"ECCENTRICITY":0.0007045,"INCLINATION":97.8508,"RA_OF_ASC_NODE":327.4463,"ARG_OF_PERICENTER":256.1517,"MEAN_ANOMALY":103.8921,"EPHEMERIS_TYPE":0,"NORAD_CAT_ID":59108,"ELEMENT_SET_NO":999,"REV_AT_EPOCH":12882,"BSTAR":0.00005413,"MEAN_MOTION_DOT":0.00000561,"MEAN_MOTION_DDOT":0},{"OBJECT_NAME":"BRO-14","OBJECT_ID":"2024-149CM","EPOCH":"2026-07-15T03:35:56.497344","CLASSIFICATION_TYPE":"U","MEAN_MOTION":14.9623587,"ECCENTRICITY":0.0006735,"INCLINATION":97.6864,"RA_OF_ASC_NODE":271.4249,"ARG_OF_PERICENTER":18.0591,"MEAN_ANOMALY":342.0868,"EPHEMERIS_TYPE":0,"NORAD_CAT_ID":60551,"ELEMENT_SET_NO":999,"REV_AT_EPOCH":10417,"BSTAR":0.000086103,"MEAN_MOTION_DOT":0.00000914,"MEAN_MOTION_DDOT":0},{"OBJECT_NAME":"BRO-15","OBJECT_ID":"2024-149CP","EPOCH":"2026-07-15T03:11:00.420864","CLASSIFICATION_TYPE":"U","MEAN_MOTION":14.96221586,"ECCENTRICITY":0.0007792,"INCLINATION":97.6792,"RA_OF_ASC_NODE":270.9837,"ARG_OF_PERICENTER":4.626,"MEAN_ANOMALY":355.5032,"EPHEMERIS_TYPE":0,"NORAD_CAT_ID":60553,"ELEMENT_SET_NO":999,"REV_AT_EPOCH":10418,"BSTAR":0.000026747,"MEAN_MOTION_DOT":0.00000245,"MEAN_MOTION_DDOT":0},{"OBJECT_NAME":"BRO-16","OBJECT_ID":"2025-009AX","EPOCH":"2026-07-15T04:19:23.453184","CLASSIFICATION_TYPE":"U","MEAN_MOTION":15.24128407,"ECCENTRICITY":0.0002144,"INCLINATION":97.4059,"RA_OF_ASC_NODE":276.3217,"ARG_OF_PERICENTER":153.8827,"MEAN_ANOMALY":206.2519,"EPHEMERIS_TYPE":0,"NORAD_CAT_ID":62654,"ELEMENT_SET_NO":999,"REV_AT_EPOCH":8306,"BSTAR":0.000080908,"MEAN_MOTION_DOT":0.00001896,"MEAN_MOTION_DDOT":0},{"OBJECT_NAME":"BRO-18","OBJECT_ID":"2025-135Y","EPOCH":"2026-07-15T04:35:52.568160","CLASSIFICATION_TYPE":"U","MEAN_MOTION":15.22173393,"ECCENTRICITY":0.0002492,"INCLINATION":97.4657,"RA_OF_ASC_NODE":311.0093,"ARG_OF_PERICENTER":115.9145,"MEAN_ANOMALY":244.2348,"EPHEMERIS_TYPE":0,"NORAD_CAT_ID":64550,"ELEMENT_SET_NO":999,"REV_AT_EPOCH":5913,"BSTAR":0.00011032,"MEAN_MOTION_DOT":0.00002461,"MEAN_MOTION_DDOT":0},{"OBJECT_NAME":"BRO-17","OBJECT_ID":"2025-276G","EPOCH":"2026-07-15T03:07:30.038592","CLASSIFICATION_TYPE":"U","MEAN_MOTION":15.181577,"ECCENTRICITY":0.0005113,"INCLINATION":97.4183,"RA_OF_ASC_NODE":268.6994,"ARG_OF_PERICENTER":259.4856,"MEAN_ANOMALY":100.5802,"EPHEMERIS_TYPE":0,"NORAD_CAT_ID":66672,"ELEMENT_SET_NO":999,"REV_AT_EPOCH":3463,"BSTAR":0.00009378,"MEAN_MOTION_DOT":0.00001848,"MEAN_MOTION_DDOT":0},{"OBJECT_NAME":"BRO-20","OBJECT_ID":"2025-276J","EPOCH":"2026-07-15T04:07:52.654080","CLASSIFICATION_TYPE":"U","MEAN_MOTION":15.18325071,"ECCENTRICITY":0.0004744,"INCLINATION":97.4162,"RA_OF_ASC_NODE":268.7284,"ARG_OF_PERICENTER":263.0525,"MEAN_ANOMALY":97.017,"EPHEMERIS_TYPE":0,"NORAD_CAT_ID":66674,"ELEMENT_SET_NO":999,"REV_AT_EPOCH":3464,"BSTAR":0.000078362,"MEAN_MOTION_DOT":0.00001541,"MEAN_MOTION_DDOT":0},{"OBJECT_NAME":"BRO-19","OBJECT_ID":"2026-067G","EPOCH":"2026-07-14T20:24:26.603424","CLASSIFICATION_TYPE":"U","MEAN_MOTION":15.18986318,"ECCENTRICITY":0.00025766,"INCLINATION":97.4493,"RA_OF_ASC_NODE":153.9148,"ARG_OF_PERICENTER":108.3967,"MEAN_ANOMALY":251.7548,"EPHEMERIS_TYPE":0,"NORAD_CAT_ID":68422,"ELEMENT_SET_NO":999,"REV_AT_EPOCH":1614,"BSTAR":0.000086470048,"MEAN_MOTION_DOT":0.00001741,"MEAN_MOTION_DDOT":0},{"OBJECT_NAME":"BRO-21","OBJECT_ID":"2026-100AD","EPOCH":"2026-07-14T16:20:13.684416","CLASSIFICATION_TYPE":"U","MEAN_MOTION":15.21620582,"ECCENTRICITY":0.00067992,"INCLINATION":97.4012,"RA_OF_ASC_NODE":93.1243,"ARG_OF_PERICENTER":331.1353,"MEAN_ANOMALY":28.9506,"EPHEMERIS_TYPE":0,"NORAD_CAT_ID":69007,"ELEMENT_SET_NO":999,"REV_AT_EPOCH":1098,"BSTAR":0.00006166811,"MEAN_MOTION_DOT":0.00001324,"MEAN_MOTION_DDOT":0},{"OBJECT_NAME":"BRO-22","OBJECT_ID":"2026-132C","EPOCH":"2026-07-15T02:34:56.470656","CLASSIFICATION_TYPE":"U","MEAN_MOTION":14.9980477,"ECCENTRICITY":0.0016617,"INCLINATION":97.6829,"RA_OF_ASC_NODE":259.4295,"ARG_OF_PERICENTER":181.2612,"MEAN_ANOMALY":178.8572,"EPHEMERIS_TYPE":0,"NORAD_CAT_ID":69504,"ELEMENT_SET_NO":999,"REV_AT_EPOCH":496,"BSTAR":0.00005943,"MEAN_MOTION_DOT":0.00000677,"MEAN_MOTION_DDOT":0}]}
